[
    {
        "Altitude(m)": 611965.2293178602,
        "Argument of Periapsis(deg)": 0.0,
        "Eccentricity": 0.0,
        "Inclination(deg)": 60.0,
        "Latitude(deg)": 59.140294824262035,
        "Longitude(deg)": 133.96991037432025,
        "Mean Anomaly(deg)": 81.81820000000003,
        "RAAN(deg)": 160.0,
        "Satellite Name": "Test1 709",
        "Satellite Number": 709,
        "Semi-Major Axis(m)": 6980739.136638005,
        "Time(s)": 0
    },
    {
        "Altitude(m)": 611995.8543351741,
        "Argument of Periapsis(deg)": 0.00010418945913296404,
        "Eccentricity": 0.0,
        "Inclination(deg)": 60.0,
        "Latitude(deg)": 59.28339368382023,
        "Longitude(deg)": 135.10327748381573,
        "Mean Anomaly(deg)": 82.43830614546184,
        "RAAN(deg)": 159.99957995086024,
        "Satellite Name": "Test1 709",
        "Satellite Number": 709,
        "Semi-Major Axis(m)": 6980739.136638005,
        "Time(s)": 10
    },
    {
        "Altitude(m)": 612024.1384587702,
        "Argument of Periapsis(deg)": 0.0002083789182659281,
        "Eccentricity": 0.0,
        "Inclination(deg)": 60.0,
        "Latitude(deg)": 59.415810433861175,
        "Longitude(deg)": 136.246168118782,
        "Mean Anomaly(deg)": 83.05841229092367,
        "RAAN(deg)": 159.9991599017205,
        "Satellite Name": "Test1 709",
        "Satellite Number": 709,
        "Semi-Major Axis(m)": 6980739.136638005,
        "Time(s)": 20
    },
    {
        "Altitude(m)": 612050.065470033,
        "Argument of Periapsis(deg)": 0.00031256837739889213,
        "Eccentricity": 0.0,
        "Inclination(deg)": 60.0,
        "Latitude(deg)": 59.53740564964623,
        "Longitude(deg)": 137.3979542611446,
        "Mean Anomaly(deg)": 83.67851843638552,
        "RAAN(deg)": 159.99873985258077,
        "Satellite Name": "Test1 709",
        "Satellite Number": 709,
        "Semi-Major Axis(m)": 6980739.136638005,
        "Time(s)": 30
    },
    {
        "Altitude(m)": 612073.6205105952,
        "Argument of Periapsis(deg)": 0.0004167578365318562,
        "Eccentricity": 0.0,
        "Inclination(deg)": 60.0,
        "Latitude(deg)": 59.648049162901465,
        "Longitude(deg)": 138.55797227701717,
        "Mean Anomaly(deg)": 84.29862458184735,
        "RAAN(deg)": 159.99831980344103,
        "Satellite Name": "Test1 709",
        "Satellite Number": 709,
        "Semi-Major Axis(m)": 6980739.136638005,
        "Time(s)": 40
    },
    {
        "Altitude(m)": 612094.7900893525,
        "Argument of Periapsis(deg)": 0.0005209472956648203,
        "Eccentricity": 0.0,
        "Inclination(deg)": 60.0,
        "Latitude(deg)": 59.74762071496561,
        "Longitude(deg)": 139.72552377571216,
        "Mean Anomaly(deg)": 84.91873072730914,
        "RAAN(deg)": 159.99789975430127,
        "Satellite Name": "Test1 709",
        "Satellite Number": 709,
        "Semi-Major Axis(m)": 6980739.136638005,
        "Time(s)": 50
    },
    {
        "Altitude(m)": 612113.5620888164,
        "Argument of Periapsis(deg)": 0.0006251367547977843,
        "Eccentricity": 0.0,
        "Inclination(deg)": 60.0,
        "Latitude(deg)": 59.836010576371535,
        "Longitude(deg)": 140.89987831455778,
        "Mean Anomaly(deg)": 85.53883687277097,
        "RAAN(deg)": 159.99747970516154,
        "Satellite Name": "Test1 709",
        "Satellite Number": 709,
        "Semi-Major Axis(m)": 6980739.136638005,
        "Time(s)": 60
    },
    {
        "Altitude(m)": 612129.9257708263,
        "Argument of Periapsis(deg)": 0.0007293262139307483,
        "Eccentricity": 0.0,
        "Inclination(deg)": 60.0,
        "Latitude(deg)": 59.913120125798926,
        "Longitude(deg)": 142.0802764260894,
        "Mean Anomaly(deg)": 86.15894301823282,
        "RAAN(deg)": 159.9970596560218,
        "Satellite Name": "Test1 709",
        "Satellite Number": 709,
        "Semi-Major Axis(m)": 6980739.136638005,
        "Time(s)": 70
    },
    {
        "Altitude(m)": 612143.8717816041,
        "Argument of Periapsis(deg)": 0.0008335156730637124,
        "Eccentricity": 0.0,
        "Inclination(deg)": 60.0,
        "Latitude(deg)": 59.97886238157523,
        "Longitude(deg)": 143.26593143858517,
        "Mean Anomaly(deg)": 86.77904916369465,
        "RAAN(deg)": 159.99663960688207,
        "Satellite Name": "Test1 709",
        "Satellite Number": 709,
        "Semi-Major Axis(m)": 6980739.136638005,
        "Time(s)": 80
    },
    {
        "Altitude(m)": 612155.392156176,
        "Argument of Periapsis(deg)": 0.0009377051321966765,
        "Eccentricity": 0.0,
        "Inclination(deg)": 60.0,
        "Latitude(deg)": 60.03316247925551,
        "Longitude(deg)": 144.45603309387195,
        "Mean Anomaly(deg)": 87.3991553091565,
        "RAAN(deg)": 159.9962195577423,
        "Satellite Name": "Test1 709",
        "Satellite Number": 709,
        "Semi-Major Axis(m)": 6980739.136638005,
        "Time(s)": 90
    },
    {
        "Altitude(m)": 612164.4803220979,
        "Argument of Periapsis(deg)": 0.0010418945913296407,
        "Eccentricity": 0.0,
        "Inclination(deg)": 60.0,
        "Latitude(deg)": 60.075958089314604,
        "Longitude(deg)": 145.64975142222465,
        "Mean Anomaly(deg)": 88.01926145461833,
        "RAAN(deg)": 159.99579950860257,
        "Satellite Name": "Test1 709",
        "Satellite Number": 709,
        "Semi-Major Axis(m)": 6980739.136638005,
        "Time(s)": 100
    },
    {
        "Altitude(m)": 612171.1311025716,
        "Argument of Periapsis(deg)": 0.0011460840504626045,
        "Eccentricity": 0.0,
        "Inclination(deg)": 60.0,
        "Latitude(deg)": 60.10719976961219,
        "Longitude(deg)": 146.84623932907462,
        "Mean Anomaly(deg)": 88.63936760008013,
        "RAAN(deg)": 159.99537945946284,
        "Satellite Name": "Test1 709",
        "Satellite Number": 709,
        "Semi-Major Axis(m)": 6980739.136638005,
        "Time(s)": 110
    },
    {
        "Altitude(m)": 612175.3407188654,
        "Argument of Periapsis(deg)": 0.0012502735095955685,
        "Eccentricity": 0.0,
        "Inclination(deg)": 60.0,
        "Latitude(deg)": 60.126851248031066,
        "Longitude(deg)": 148.04463688229256,
        "Mean Anomaly(deg)": 89.25947374554197,
        "RAAN(deg)": 159.9949594103231,
        "Satellite Name": "Test1 709",
        "Satellite Number": 709,
        "Semi-Major Axis(m)": 6980739.136638005,
        "Time(s)": 120
    },
    {
        "Altitude(m)": 612177.1067921022,
        "Argument of Periapsis(deg)": 0.0013544629687285324,
        "Eccentricity": 0.0,
        "Inclination(deg)": 60.0,
        "Latitude(deg)": 60.134889631550024,
        "Longitude(deg)": 149.24407574626764,
        "Mean Anomaly(deg)": 89.87957989100381,
        "RAAN(deg)": 159.99453936118334,
        "Satellite Name": "Test1 709",
        "Satellite Number": 709,
        "Semi-Major Axis(m)": 6980739.136638005,
        "Time(s)": 130
    },
    {
        "Altitude(m)": 612176.4283443642,
        "Argument of Periapsis(deg)": 0.0014586524278614966,
        "Eccentricity": 0.0,
        "Inclination(deg)": 60.0,
        "Latitude(deg)": 60.13130553895288,
        "Longitude(deg)": 150.44368220589985,
        "Mean Anomaly(deg)": 90.49968603646565,
        "RAAN(deg)": 159.9941193120436,
        "Satellite Name": "Test1 709",
        "Satellite Number": 709,
        "Semi-Major Axis(m)": 6980739.136638005,
        "Time(s)": 140
    },
    {
        "Altitude(m)": 612173.30579916,
        "Argument of Periapsis(deg)": 0.0015628418869944607,
        "Eccentricity": 0.0,
        "Inclination(deg)": 60.0,
        "Latitude(deg)": 60.116103155378234,
        "Longitude(deg)": 151.64258176004557,
        "Mean Anomaly(deg)": 91.11979218192745,
        "RAAN(deg)": 159.99369926290385,
        "Satellite Name": "Test1 709",
        "Satellite Number": 709,
        "Semi-Major Axis(m)": 6980739.136638005,
        "Time(s)": 150
    },
    {
        "Altitude(m)": 612167.7409812168,
        "Argument of Periapsis(deg)": 0.0016670313461274247,
        "Eccentricity": 0.0,
        "Inclination(deg)": 60.0,
        "Latitude(deg)": 60.089300207972606,
        "Longitude(deg)": 152.839903724106,
        "Mean Anomaly(deg)": 91.73989832738928,
        "RAAN(deg)": 159.99327921376414,
        "Satellite Name": "Test1 709",
        "Satellite Number": 709,
        "Semi-Major Axis(m)": 6980739.136638005,
        "Time(s)": 160
    },
    {
        "Altitude(m)": 612159.7371156254,
        "Argument of Periapsis(deg)": 0.0017712208052603888,
        "Eccentricity": 0.0,
        "Inclination(deg)": 60.0,
        "Latitude(deg)": 60.05092786297911,
        "Longitude(deg)": 154.0347842812512,
        "Mean Anomaly(deg)": 92.36000447285112,
        "RAAN(deg)": 159.99285916462438,
        "Satellite Name": "Test1 709",
        "Satellite Number": 709,
        "Semi-Major Axis(m)": 6980739.136638005,
        "Time(s)": 170
    },
    {
        "Altitude(m)": 612149.2988263034,
        "Argument of Periapsis(deg)": 0.001875410264393353,
        "Eccentricity": 0.0,
        "Inclination(deg)": 60.0,
        "Latitude(deg)": 60.00103054564975,
        "Longitude(deg)": 155.22637096123267,
        "Mean Anomaly(deg)": 92.98011061831295,
        "RAAN(deg)": 159.99243911548464,
        "Satellite Name": "Test1 709",
        "Satellite Number": 709,
        "Semi-Major Axis(m)": 6980739.136638005,
        "Time(s)": 180
    },
    {
        "Altitude(m)": 612136.4321338278,
        "Argument of Periapsis(deg)": 0.0019795997235263173,
        "Eccentricity": 0.0,
        "Inclination(deg)": 60.0,
        "Latitude(deg)": 59.939665685403504,
        "Longitude(deg)": 156.413826988944,
        "Mean Anomaly(deg)": 93.60021676377481,
        "RAAN(deg)": 159.99201906634488,
        "Satellite Name": "Test1 709",
        "Satellite Number": 709,
        "Semi-Major Axis(m)": 6980739.136638005,
        "Time(s)": 190
    }
]